MALLIGYONG-1            
1 58400U 23179A   24003.82551204  .00005552  00000+0  24710-3 0  9998
2 58400  97.4251 253.0328 0017186 122.5707 237.7191 15.21746237  6573
